STARLINK-2334
1 27792C 21018F   21325.14616028  .00005850  00000-0  39192-3 0  3250
2 27792  53.0567  77.5770 0001278  77.6367 349.2061 15.06394845    15
